KUZGTU 1 (RS47S)        
1 57217U 23091AV  26178.49860372  .00012416  00000+0  42791-3 0  9999
2 57217  97.5067 243.0843 0011831  65.9825 294.2652 15.30090538165951
SONATE-2                
1 59112U 24043Q   26178.40762674  .00044869  00000+0  56515-3 0  9996
2 59112  97.5532 329.4362 0007289 162.2172 197.9340 15.59478469129482
MESAT1                  
1 60209U 24125G   26178.53707259  .00055661  00000+0  57927-3 0  9998
2 60209  97.2281  36.2627 0010595 167.8501 192.3016 15.64345558111182
OOV-CUBE (TUBSAT-30)    
1 60240U 24128F   26178.50198200  .00001706  00000+0  14007-3 0  9996
2 60240  61.9924 189.6042 0043348 136.0616 224.3935 15.02808571107665
COLIBRI-S (RS67S)       
1 61746U 24199M   26178.53439475  .00021937  00000+0  41856-3 0  9991
2 61746  97.2983  52.4854 0006688 228.9415 131.1258 15.48140958139011
HORS 3 (RS81S)          
1 61753U 24199U   26178.51240273  .00037767  00000+0  54904-3 0  9999
2 61753  97.2970  54.5631 0004566 220.3107 139.7809 15.55678055139162
HORS 4 (RS82S)          
1 61754U 24199V   26178.50522464  .00048061  00000+0  57929-3 0  9993
2 61754  97.2912  55.8254 0004568 204.5349 155.5692 15.60642307139251
SIT-2086                
1 61764U 24199AF  26178.50319111  .00037174  00000+0  57884-3 0  9990
2 61764  97.2928  54.9946 0005851 203.8601 156.2383 15.53786437136039
HYPERVIEW 1G (RS66S)    
1 61772U 24199AP  26177.77067532  .00148755  00000+0  84483-3 0  9997
2 61772  97.2856  57.9913 0005986 186.8100 173.3087 15.78571118136180
ALTAIR (RS65S)          
1 61779U 24199AW  26178.52795691  .00011256  00000+0  31043-3 0  9991
2 61779  97.3023  47.8115 0010749 267.8046  92.1968 15.37214230138708
ASRTU-1 (AO-123)        
1 61781U 24199AY  26178.52502647  .00007531  00000+0  21794-3 0  9994
2 61781  97.2994  47.1032 0011871 271.4691  88.5193 15.35817519135514
SAMSAT-IONOSPHERE (RS7*)
1 61784U 24199BB  26178.52822838  .00046122  00000+0  60203-3 0  9991
2 61784  97.2935  54.6647 0006731 225.3090 134.7619 15.58528877139171
RTU MIREA 1 (RS51S)     
1 61785U 24199BC  26178.52905249  .00054760  00000+0  62025-3 0  9991
2 61785  97.2923  55.5517 0006789 216.7652 143.3141 15.62218862136084
TEVEL2-4                
1 63213U 25052D   26178.22278874  .00019955  00000+0  58985-3 0  9999
2 63213  97.3900  74.6325 0004819  85.3074 274.8720 15.34955968 71655
TEVEL2-5                
1 63214U 25052E   26178.50522470  .00017948  00000+0  53379-3 0  9997
2 63214  97.3899  74.8604 0004802  85.5569 274.6223 15.34786157 71690
TEVEL2-6                
1 63215U 25052F   26178.25699216  .00020324  00000+0  60478-3 0  9993
2 63215  97.3903  74.5963 0004643  86.9832 273.1942 15.34743866 71651
TEVEL2-1                
1 63217U 25052H   26178.22433366  .00018970  00000+0  57458-3 0  9992
2 63217  97.3871  74.1759 0004996  94.4509 265.7304 15.34194637 71635
TEVEL2-3                
1 63218U 25052J   26178.47948772  .00017515  00000+0  52972-3 0  9992
2 63218  97.3878  74.4543 0004879  94.4776 265.7024 15.34260298 71673
TEVEL2-2                
1 63219U 25052K   26178.22458634  .00019407  00000+0  58752-3 0  9993
2 63219  97.3873  74.1789 0005009  94.7391 265.4424 15.34205693 71635
TEVEL2-9                
1 63237U 25052AD  26178.21505297  .00017853  00000+0  57551-3 0  9999
2 63237  97.3934  73.5229 0008293 104.2052 256.0111 15.32198035 71564
TEVEL2-7                
1 63238U 25052AE  26178.51919280  .00016288  00000+0  53023-3 0  9995
2 63238  97.3939  73.7382 0008364 103.6782 256.5391 15.31903261 71608
TEVEL2-8                
1 63239U 25052AF  26177.22110573  .00017980  00000+0  58597-3 0  9992
2 63239  97.3937  72.4192 0008385 107.6731 252.5427 15.31844407 71403
INNOSAT 16 (RS92S7)     
1 64878U 25155C   26178.49712449  .00005458  00000+0  21760-3 0  9995
2 64878  97.4563 145.5924 0011684 141.6412 218.5659 15.25561206 82243
GEOSCAN 6 (RS92S6)      
1 64879U 25155D   26178.51343119  .00010126  00000+0  34714-3 0  9994
2 64879  97.4554 147.1062 0009463 131.3092 228.8964 15.30338449 82348
GEOSCAN 1 (RS92S1)      
1 64880U 25155E   26178.51180682  .00011434  00000+0  38421-3 0  9992
2 64880  97.4551 147.2615 0009403 131.2720 228.9332 15.30955719 82359
239ALFEROV (RS61S)      
1 64881U 25155F   26178.46650410  .00014512  00000+0  45387-3 0  9997
2 64881  97.4550 147.8125 0009107 129.7062 230.4984 15.33207680 82387
GEOSCAN 2 (RS92S2)      
1 64890U 25155Q   26178.50367079  .00009757  00000+0  32570-3 0  9993
2 64890  97.4550 147.4100 0009018 120.1142 240.0995 15.31218717 82369
GEOSCAN 5 (RS92S5)      
1 64891U 25155R   26178.51865795  .00014408  00000+0  44629-3 0  9990
2 64891  97.4543 148.0065 0007975 132.9344 227.2568 15.33526041 82406
GEOSCAN 4 (RS92S4)      
1 64892U 25155S   26178.50179977  .00013984  00000+0  43112-3 0  9994
2 64892  97.4547 148.0409 0008015 132.5570 227.6350 15.33683875 82408
GEOSCAN 3 (RS92S3)      
1 64893U 25155T   26178.48905263  .00017874  00000+0  51558-3 0  9992
2 64893  97.4534 148.4878 0007983 131.7925 228.4002 15.35730441 82437
