OBJECT_NAME,OBJECT_ID,EPOCH,MEAN_MOTION,ECCENTRICITY,INCLINATION,RA_OF_ASC_NODE,ARG_OF_PERICENTER,MEAN_ANOMALY,EPHEMERIS_TYPE,CLASSIFICATION_TYPE,NORAD_CAT_ID,ELEMENT_SET_NO,REV_AT_EPOCH,BSTAR,MEAN_MOTION_DOT,MEAN_MOTION_DDOT
KUZGTU 1 (RS47S),2023-091AV,2026-06-27T11:57:59.361408,15.30090538,.0011831,97.5067,243.0843,65.9825,294.2652,0,U,57217,999,16595,.42791E-3,.12416E-3,0
SONATE-2,2024-043Q,2026-06-27T09:46:58.950336,15.59478469,.0007289,97.5532,329.4362,162.2172,197.9340,0,U,59112,999,12948,.56515E-3,.44869E-3,0
MESAT1,2024-125G,2026-06-27T12:53:23.071776,15.64345558,.0010595,97.2281,36.2627,167.8501,192.3016,0,U,60209,999,11118,.57927E-3,.55661E-3,0
OOV-CUBE (TUBSAT-30),2024-128F,2026-06-27T12:02:51.244800,15.02808571,.0043348,61.9924,189.6042,136.0616,224.3935,0,U,60240,999,10766,.14007E-3,.1706E-4,0
COLIBRI-S (RS67S),2024-199M,2026-06-27T12:49:31.706400,15.48140958,.0006688,97.2983,52.4854,228.9415,131.1258,0,U,61746,999,13901,.41856E-3,.21937E-3,0
HORS 3 (RS81S),2024-199U,2026-06-27T12:17:51.595872,15.55678055,.0004566,97.2970,54.5631,220.3107,139.7809,0,U,61753,999,13916,.54904E-3,.37767E-3,0
HORS 4 (RS82S),2024-199V,2026-06-27T12:07:31.408896,15.60642307,.0004568,97.2912,55.8254,204.5349,155.5692,0,U,61754,999,13925,.57929E-3,.48061E-3,0
SIT-2086,2024-199AF,2026-06-27T12:04:35.711904,15.53786437,.0005851,97.2928,54.9946,203.8601,156.2383,0,U,61764,999,13603,.57884E-3,.37174E-3,0
HYPERVIEW 1G (RS66S),2024-199AP,2026-06-26T18:29:46.347648,15.78571118,.00059865,97.2856,57.9913,186.8100,173.3087,0,U,61772,999,13618,.84483271E-3,.148755E-2,0
ALTAIR (RS65S),2024-199AW,2026-06-27T12:40:15.477024,15.37214230,.0010749,97.3023,47.8115,267.8046,92.1968,0,U,61779,999,13870,.31043E-3,.11256E-3,0
ASRTU-1 (AO-123),2024-199AY,2026-06-27T12:36:02.287008,15.35817519,.0011871,97.2994,47.1032,271.4691,88.5193,0,U,61781,999,13551,.21794E-3,.7531E-4,0
SAMSAT-IONOSPHERE (RS75S),2024-199BB,2026-06-27T12:40:38.932032,15.58528877,.0006731,97.2935,54.6647,225.3090,134.7619,0,U,61784,999,13917,.60203E-3,.46122E-3,0
RTU MIREA 1 (RS51S),2024-199BC,2026-06-27T12:41:50.135136,15.62218862,.0006789,97.2923,55.5517,216.7652,143.3141,0,U,61785,999,13608,.62025E-3,.5476E-3,0
TEVEL2-4,2025-052D,2026-06-27T05:20:48.947136,15.34955968,.00048196,97.3900,74.6325,85.3074,274.8720,0,U,63213,999,7165,.58985118E-3,.19955E-3,0
TEVEL2-5,2025-052E,2026-06-27T12:07:31.414080,15.34786157,.0004802,97.3899,74.8604,85.5569,274.6223,0,U,63214,999,7169,.53379E-3,.17948E-3,0
TEVEL2-6,2025-052F,2026-06-27T06:10:04.122624,15.34743866,.0004643,97.3903,74.5963,86.9832,273.1942,0,U,63215,999,7165,.60478E-3,.20324E-3,0
TEVEL2-1,2025-052H,2026-06-27T05:23:02.428224,15.34194637,.0004996,97.3871,74.1759,94.4509,265.7304,0,U,63217,999,7163,.57458E-3,.1897E-3,0
TEVEL2-3,2025-052J,2026-06-27T11:30:27.739008,15.34260298,.0004879,97.3878,74.4543,94.4776,265.7024,0,U,63218,999,7167,.52972E-3,.17515E-3,0
TEVEL2-2,2025-052K,2026-06-27T05:23:24.259776,15.34205693,.0005009,97.3873,74.1789,94.7391,265.4424,0,U,63219,999,7163,.58752E-3,.19407E-3,0
TEVEL2-9,2025-052AD,2026-06-27T05:09:40.576608,15.32198035,.00082938,97.3934,73.5229,104.2052,256.0111,0,U,63237,999,7156,.57551268E-3,.17853E-3,0
TEVEL2-7,2025-052AE,2026-06-27T12:27:38.257920,15.31903261,.0008364,97.3939,73.7382,103.6782,256.5391,0,U,63238,999,7160,.53023E-3,.16288E-3,0
TEVEL2-8,2025-052AF,2026-06-26T05:18:23.535072,15.31844407,.0008385,97.3937,72.4192,107.6731,252.5427,0,U,63239,999,7140,.58597E-3,.1798E-3,0
INNOSAT 16 (RS92S7),2025-155C,2026-06-27T11:55:51.555936,15.25561206,.0011684,97.4563,145.5924,141.6412,218.5659,0,U,64878,999,8224,.2176E-3,.5458E-4,0
GEOSCAN 6 (RS92S6),2025-155D,2026-06-27T12:19:20.454816,15.30338449,.0009463,97.4554,147.1062,131.3092,228.8964,0,U,64879,999,8234,.34714E-3,.10126E-3,0
GEOSCAN 1 (RS92S1),2025-155E,2026-06-27T12:17:00.109248,15.30955719,.0009403,97.4551,147.2615,131.2720,228.9332,0,U,64880,999,8235,.38421E-3,.11434E-3,0
239ALFEROV (RS61S),2025-155F,2026-06-27T11:11:45.954240,15.33207680,.0009107,97.4550,147.8125,129.7062,230.4984,0,U,64881,999,8238,.45387E-3,.14512E-3,0
GEOSCAN 2 (RS92S2),2025-155Q,2026-06-27T12:05:17.156256,15.31218717,.0009018,97.4550,147.4100,120.1142,240.0995,0,U,64890,999,8236,.3257E-3,.9757E-4,0
GEOSCAN 5 (RS92S5),2025-155R,2026-06-27T12:26:52.046880,15.33526041,.0007975,97.4543,148.0065,132.9344,227.2568,0,U,64891,999,8240,.44629E-3,.14408E-3,0
GEOSCAN 4 (RS92S4),2025-155S,2026-06-27T12:02:35.500128,15.33683875,.0008015,97.4547,148.0409,132.5570,227.6350,0,U,64892,999,8240,.43112E-3,.13984E-3,0
GEOSCAN 3 (RS92S3),2025-155T,2026-06-27T11:44:14.147232,15.35730441,.0007983,97.4534,148.4878,131.7925,228.4002,0,U,64893,999,8243,.51558E-3,.17874E-3,0
